CCSDS_OMM_VERS = 2.0
CREATION_DATE  = 
ORIGINATOR     = 

OBJECT_NAME    = SL-14 R/B
OBJECT_ID      = 1986-046B
CENTER_NAME    = EARTH
REF_FRAME      = TEME
TIME_SYSTEM    = UTC
MEAN_ELEMENT_THEORY = SGP/SGP4

EPOCH          = 2025-11-25T08:03:09.454176
MEAN_MOTION    = 14.85458756
ECCENTRICITY   = .0022313
INCLINATION    = 82.4817
RA_OF_ASC_NODE = 178.7503
ARG_OF_PERICENTER = 209.8037
MEAN_ANOMALY   = 150.1910

EPHEMERIS_TYPE = 0
CLASSIFICATION_TYPE = U
NORAD_CAT_ID   = 16792
ELEMENT_SET_NO = 999
REV_AT_EPOCH   = 11091
BSTAR          = .63334E-4
MEAN_MOTION_DOT = .572E-5
MEAN_MOTION_DDOT = 0

CCSDS_OMM_VERS = 2.0
CREATION_DATE  = 
ORIGINATOR     = 

OBJECT_NAME    = SL-14 R/B
OBJECT_ID      = 1986-055B
CENTER_NAME    = EARTH
REF_FRAME      = TEME
TIME_SYSTEM    = UTC
MEAN_ELEMENT_THEORY = SGP/SGP4

EPOCH          = 2025-11-25T11:45:37.608768
MEAN_MOTION    = 14.85505308
ECCENTRICITY   = .0018001
INCLINATION    = 82.5218
RA_OF_ASC_NODE = 224.5791
ARG_OF_PERICENTER = 321.0297
MEAN_ANOMALY   = 212.2347

EPHEMERIS_TYPE = 0
CLASSIFICATION_TYPE = U
NORAD_CAT_ID   = 16882
ELEMENT_SET_NO = 999
REV_AT_EPOCH   = 10389
BSTAR          = .75951E-4
MEAN_MOTION_DOT = .681E-5
MEAN_MOTION_DDOT = 0

CCSDS_OMM_VERS = 2.0
CREATION_DATE  = 
ORIGINATOR     = 

OBJECT_NAME    = AJISAI (EGS)
OBJECT_ID      = 1986-061A
CENTER_NAME    = EARTH
REF_FRAME      = TEME
TIME_SYSTEM    = UTC
MEAN_ELEMENT_THEORY = SGP/SGP4

EPOCH          = 2025-11-25T11:34:12.391968
MEAN_MOTION    = 12.44514072
ECCENTRICITY   = .0011234
INCLINATION    = 50.0108
RA_OF_ASC_NODE = 53.7822
ARG_OF_PERICENTER = 22.5701
MEAN_ANOMALY   = 69.4477

EPHEMERIS_TYPE = 0
CLASSIFICATION_TYPE = U
NORAD_CAT_ID   = 16908
ELEMENT_SET_NO = 999
REV_AT_EPOCH   = 45502
BSTAR          = -.22394E-4
MEAN_MOTION_DOT = -.101E-5
MEAN_MOTION_DDOT = 0

CCSDS_OMM_VERS = 2.0
CREATION_DATE  = 
ORIGINATOR     = 

OBJECT_NAME    = COSMOS 1812
OBJECT_ID      = 1987-003A
CENTER_NAME    = EARTH
REF_FRAME      = TEME
TIME_SYSTEM    = UTC
MEAN_ELEMENT_THEORY = SGP/SGP4

EPOCH          = 2025-11-25T10:22:07.351392
MEAN_MOTION    = 15.71701188
ECCENTRICITY   = .000662
INCLINATION    = 82.4880
RA_OF_ASC_NODE = 310.6968
ARG_OF_PERICENTER = 110.6512
MEAN_ANOMALY   = 249.5461

EPHEMERIS_TYPE = 0
CLASSIFICATION_TYPE = U
NORAD_CAT_ID   = 17295
ELEMENT_SET_NO = 999
REV_AT_EPOCH   = 12793
BSTAR          = .70825E-3
MEAN_MOTION_DOT = .92146E-3
MEAN_MOTION_DDOT = 0

CCSDS_OMM_VERS = 2.0
CREATION_DATE  = 
ORIGINATOR     = 

OBJECT_NAME    = SL-14 R/B
OBJECT_ID      = 1987-024B
CENTER_NAME    = EARTH
REF_FRAME      = TEME
TIME_SYSTEM    = UTC
MEAN_ELEMENT_THEORY = SGP/SGP4

EPOCH          = 2025-11-25T08:08:47.903712
MEAN_MOTION    = 14.85999367
ECCENTRICITY   = .0016837
INCLINATION    = 82.5287
RA_OF_ASC_NODE = 190.7992
ARG_OF_PERICENTER = 244.5944
MEAN_ANOMALY   = 115.3530

EPHEMERIS_TYPE = 0
CLASSIFICATION_TYPE = U
NORAD_CAT_ID   = 17567
ELEMENT_SET_NO = 999
REV_AT_EPOCH   = 7263
BSTAR          = .62476E-4
MEAN_MOTION_DOT = .571E-5
MEAN_MOTION_DDOT = 0

CCSDS_OMM_VERS = 2.0
CREATION_DATE  = 
ORIGINATOR     = 

OBJECT_NAME    = COSMOS 1833
OBJECT_ID      = 1987-027A
CENTER_NAME    = EARTH
REF_FRAME      = TEME
TIME_SYSTEM    = UTC
MEAN_ELEMENT_THEORY = SGP/SGP4

EPOCH          = 2025-11-25T07:16:31.036800
MEAN_MOTION    = 14.13017976
ECCENTRICITY   = .0021802
INCLINATION    = 70.9128
RA_OF_ASC_NODE = 185.4321
ARG_OF_PERICENTER = 356.3416
MEAN_ANOMALY   = 3.7542

EPHEMERIS_TYPE = 0
CLASSIFICATION_TYPE = U
NORAD_CAT_ID   = 17589
ELEMENT_SET_NO = 999
REV_AT_EPOCH   = 99556
BSTAR          = -.1327E-4
MEAN_MOTION_DOT = -.73E-6
MEAN_MOTION_DDOT = 0

CCSDS_OMM_VERS = 2.0
CREATION_DATE  = 
ORIGINATOR     = 

OBJECT_NAME    = SL-16 R/B
OBJECT_ID      = 1987-027B
CENTER_NAME    = EARTH
REF_FRAME      = TEME
TIME_SYSTEM    = UTC
MEAN_ELEMENT_THEORY = SGP/SGP4

EPOCH          = 2025-11-25T10:31:26.457888
MEAN_MOTION    = 14.17148536
ECCENTRICITY   = .0007272
INCLINATION    = 71.0002
RA_OF_ASC_NODE = 136.1742
ARG_OF_PERICENTER = 277.4419
MEAN_ANOMALY   = 82.5878

EPHEMERIS_TYPE = 0
CLASSIFICATION_TYPE = U
NORAD_CAT_ID   = 17590
ELEMENT_SET_NO = 999
REV_AT_EPOCH   = 57
BSTAR          = .149E-3
MEAN_MOTION_DOT = .252E-5
MEAN_MOTION_DDOT = 0

CCSDS_OMM_VERS = 2.0
CREATION_DATE  = 
ORIGINATOR     = 

OBJECT_NAME    = SL-14 R/B
OBJECT_ID      = 1987-038B
CENTER_NAME    = EARTH
REF_FRAME      = TEME
TIME_SYSTEM    = UTC
MEAN_ELEMENT_THEORY = SGP/SGP4

EPOCH          = 2025-11-25T06:44:24.224352
MEAN_MOTION    = 14.85237353
ECCENTRICITY   = .002019
INCLINATION    = 82.5031
RA_OF_ASC_NODE = 35.1432
ARG_OF_PERICENTER = 146.1515
MEAN_ANOMALY   = 214.0995

EPHEMERIS_TYPE = 0
CLASSIFICATION_TYPE = U
NORAD_CAT_ID   = 17912
ELEMENT_SET_NO = 999
REV_AT_EPOCH   = 6373
BSTAR          = .69924E-4
MEAN_MOTION_DOT = .626E-5
MEAN_MOTION_DDOT = 0

CCSDS_OMM_VERS = 2.0
CREATION_DATE  = 
ORIGINATOR     = 

OBJECT_NAME    = COSMOS 1844
OBJECT_ID      = 1987-041A
CENTER_NAME    = EARTH
REF_FRAME      = TEME
TIME_SYSTEM    = UTC
MEAN_ELEMENT_THEORY = SGP/SGP4

EPOCH          = 2025-11-25T05:40:40.492128
MEAN_MOTION    = 14.14528310
ECCENTRICITY   = .0030849
INCLINATION    = 70.8995
RA_OF_ASC_NODE = 254.4863
ARG_OF_PERICENTER = 184.2285
MEAN_ANOMALY   = 175.8581

EPHEMERIS_TYPE = 0
CLASSIFICATION_TYPE = U
NORAD_CAT_ID   = 17973
ELEMENT_SET_NO = 999
REV_AT_EPOCH   = 98881
BSTAR          = .36612E-4
MEAN_MOTION_DOT = .22E-6
MEAN_MOTION_DDOT = 0

CCSDS_OMM_VERS = 2.0
CREATION_DATE  = 
ORIGINATOR     = 

OBJECT_NAME    = SL-14 R/B
OBJECT_ID      = 1987-055B
CENTER_NAME    = EARTH
REF_FRAME      = TEME
TIME_SYSTEM    = UTC
MEAN_ELEMENT_THEORY = SGP/SGP4

EPOCH          = 2025-11-25T09:51:08.383680
MEAN_MOTION    = 14.85493816
ECCENTRICITY   = .0020684
INCLINATION    = 82.4991
RA_OF_ASC_NODE = 87.3183
ARG_OF_PERICENTER = 2.6474
MEAN_ANOMALY   = 357.4847

EPHEMERIS_TYPE = 0
CLASSIFICATION_TYPE = U
NORAD_CAT_ID   = 18153
ELEMENT_SET_NO = 999
REV_AT_EPOCH   = 5445
BSTAR          = .7579E-4
MEAN_MOTION_DOT = .68E-5
MEAN_MOTION_DDOT = 0

CCSDS_OMM_VERS = 2.0
CREATION_DATE  = 
ORIGINATOR     = 

OBJECT_NAME    = COSMOS 1867
OBJECT_ID      = 1987-060A
CENTER_NAME    = EARTH
REF_FRAME      = TEME
TIME_SYSTEM    = UTC
MEAN_ELEMENT_THEORY = SGP/SGP4

EPOCH          = 2025-11-25T03:17:38.003424
MEAN_MOTION    = 14.31482103
ECCENTRICITY   = .001363
INCLINATION    = 65.0101
RA_OF_ASC_NODE = 239.4951
ARG_OF_PERICENTER = 269.3150
MEAN_ANOMALY   = 90.6373

EPHEMERIS_TYPE = 0
CLASSIFICATION_TYPE = U
NORAD_CAT_ID   = 18187
ELEMENT_SET_NO = 999
REV_AT_EPOCH   = 497
BSTAR          = .35125E-4
MEAN_MOTION_DOT = -.7E-7
MEAN_MOTION_DDOT = 0

CCSDS_OMM_VERS = 2.0
CREATION_DATE  = 
ORIGINATOR     = 

OBJECT_NAME    = COSMOS 1892
OBJECT_ID      = 1987-088A
CENTER_NAME    = EARTH
REF_FRAME      = TEME
TIME_SYSTEM    = UTC
MEAN_ELEMENT_THEORY = SGP/SGP4

EPOCH          = 2025-11-25T12:59:51.062208
MEAN_MOTION    = 16.13768158
ECCENTRICITY   = .000557
INCLINATION    = 82.4630
RA_OF_ASC_NODE = 63.0639
ARG_OF_PERICENTER = 268.0760
MEAN_ANOMALY   = 91.9888

EPHEMERIS_TYPE = 0
CLASSIFICATION_TYPE = U
NORAD_CAT_ID   = 18421
ELEMENT_SET_NO = 999
REV_AT_EPOCH   = 8856
BSTAR          = .76668E-3
MEAN_MOTION_DOT = .909146E-2
MEAN_MOTION_DDOT = .51183E-3

