SL-14 R/B               
1 16792U 86046B   25329.33552609  .00000572  00000+0  63334-4 0  9999
2 16792  82.4817 178.7503 0022313 209.8037 150.1910 14.85458756110910
SL-14 R/B               
1 16882U 86055B   25329.49001862  .00000681  00000+0  75951-4 0  9995
2 16882  82.5218 224.5791 0018001 321.0297 212.2347 14.85505308103898
AJISAI (EGS)            
1 16908U 86061A   25329.48208787 -.00000101  00000+0 -22394-4 0  9997
2 16908  50.0108  53.7822 0011234  22.5701  69.4477 12.44514072455028
COSMOS 1812             
1 17295U 87003A   25329.43202953  .00092146  00000+0  70825-3 0  9997
2 17295  82.4880 310.6968 0006620 110.6512 249.5461 15.71701188127931
SL-14 R/B               
1 17567U 87024B   25329.33944334  .00000571  00000+0  62476-4 0  9992
2 17567  82.5287 190.7992 0016837 244.5944 115.3530 14.85999367 72631
COSMOS 1833             
1 17589U 87027A   25329.30313701 -.00000073  00000+0 -13270-4 0  9991
2 17589  70.9128 185.4321 0021801 356.3416   3.7542 14.13017976995567
SL-16 R/B               
1 17590U 87027B   25329.43850067  .00000252  00000+0  14900-3 0  9995
2 17590  71.0002 136.1742 0007272 277.4419  82.5878 14.17148536   570
SL-14 R/B               
1 17912U 87038B   25329.28083593  .00000626  00000+0  69924-4 0  9992
2 17912  82.5031  35.1432 0020190 146.1515 214.0995 14.85237353 63734
COSMOS 1844             
1 17973U 87041A   25329.23657977  .00000022  00000+0  36612-4 0  9999
2 17973  70.8995 254.4863 0030848 184.2285 175.8581 14.14528310988810
SL-14 R/B               
1 18153U 87055B   25329.41051370  .00000680  00000+0  75790-4 0  9990
2 18153  82.4991  87.3183 0020684   2.6474 357.4847 14.85493816 54451
COSMOS 1867             
1 18187U 87060A   25329.13724541 -.00000007  00000+0  35125-4 0  9991
2 18187  65.0101 239.4951 0013630 269.3150  90.6373 14.31482103  4977
COSMOS 1892             
1 18421U 87088A   25329.54156322  .00909146  51183-3  76668-3 0  9992
2 18421  82.4630  63.0639 0005570 268.0760  91.9888 16.13768158 88560
